SCD 1                   
1 22490U 93009B   26165.62533624  .00000369  00000+0  49930-4 0  9995
2 22490  24.9680 223.3964 0042141 110.7073  23.6278 14.46118084760747
TECHSAT 1B (GO-32)      
1 25397U 98043D   26165.95709969  .00000038  00000+0  36595-4 0  9996
2 25397  99.0066 158.6595 0000936 168.0137 192.1063 14.24428011451011
SCD 2                   
1 25504U 98060A   26166.08713446  .00000367  00000+0  51703-4 0  9998
2 25504  24.9950  85.1081 0016977 101.0153 281.8843 14.45525172460023
DLR-TUBSAT              
1 25757U 99029B   26166.22672438  .00000061  00000+0  26896-4 0  9991
2 25757  98.6696 161.6663 0014175   1.2101 358.9126 14.52426415432966
TERRA                   
1 25994U 99068A   26166.16986764  .00000325  00000+0  75084-4 0  9996
2 25994  97.9457 215.7960 0001427 197.0393 231.2884 14.61101583409313
MAROC-TUBSAT            
1 27004U 01056D   26166.11405537 -.00000029  00000+0  20211-4 0  9993
2 27004  99.8080 342.9345 0020265 146.4549 326.2466 13.70262412225902
AQUA                    
1 27424U 02022A   26166.19687691  .00000662  00000+0  14146-3 0  9995
2 27424  98.4276 135.4399 0001179  53.3370 317.2643 14.62155456282984
SHIYAN-1 (SY-1)         
1 28220U 04012A   26166.16111579  .00011928  00000+0  36816-3 0  9990
2 28220  97.8695 244.0974 0005787  40.0278 320.1389 15.33717916210785
AURA                    
1 28376U 04026A   26166.13737397  .00000645  00000+0  14043-3 0  9998
2 28376  98.3417 122.5737 0001233  74.2274 285.9062 14.61326243165918
IRS-P5 (CARTOSAT-1)     
1 28649U 05017A   26166.06503900  .00001269  00000+0  13348-3 0  9995
2 28649  97.5308 189.2257 0002643  82.4469 277.7050 14.91044476143506
SINAH 1                 
1 28893U 05043D   26166.14065976  .00000263  00000+0  59437-4 0  9993
2 28893  98.2857 300.4506 0013155 283.8587  76.1152 14.64156402100225
RESURS-DK 1             
1 29228U 06021A   26165.92005308  .00002367  00000+0  13900-3 0  9992
2 29228  69.9340 345.4214 0006841 293.4121  66.6326 15.13210348102235
ARIRANG-2 (KOMPSAT-2)   
1 29268U 06031A   26166.25254928  .00000354  00000+0  74823-4 0  9994
2 29268  97.8301 350.7928 0015928  80.0398  29.5018 14.64659358 61197
LAPAN-TUBSAT            
1 29709U 07001A   26166.23420634  .00001020  00000+0  12335-3 0  9999
2 29709  98.1335 165.4138 0011699 185.5027 174.6061 14.85951464 50861
HAIYANG-1B              
1 31113U 07010A   26166.18704083  .00000067  00000+0  41371-4 0  9991
2 31113  98.3494 148.1098 0012894 202.4597 157.6023 14.31026416   352
COSMO-SKYMED 1          
1 31598U 07023A   26166.19672546  .00002148  00000+0  19148-3 0  9999
2 31598  97.8839 358.0359 0001155  98.4294 261.7059 14.97090189 29495
TERRASAR-X              
1 31698U 07026A   26165.55699353  .00000380  00000+0  21289-4 0  9993
2 31698  97.4461 173.3010 0001800  95.8158 264.3281 15.19148207 52821
WORLDVIEW-1 (WV-1)      
1 32060U 07041A   26166.19133968  .00004836  00000+0  20109-3 0  9999
2 32060  97.3878 285.9633 0002434  27.0836 333.0528 15.24247430 42574
YAOGAN-3                
1 32289U 07055A   26166.18086095  .00002918  00000+0  30242-3 0  9992
2 32289  97.8155 196.0787 0002047  86.4341 273.7111 14.90778937  5572
COSMO-SKYMED 2          
1 32376U 07059A   26166.20324042  .00000343  00000+0  49602-4 0  9994
2 32376  97.8886 349.8300 0001379  86.5274 273.6096 14.82153579  1715
RADARSAT-2              
1 32382U 07061A   26166.14859848  .00000027  00000+0  27241-4 0  9998
2 32382  98.5772 173.1099 0001305  83.6407 276.4923 14.29981201965667
CARTOSAT-2A             
1 32783U 08021A   26166.15249988  .00000620  00000+0  90118-4 0  9991
2 32783  97.7638 214.9303 0013092 114.8372 245.4203 14.79235715978501
HUANJING 1A (HJ-1A)     
1 33320U 08041A   26166.21091917  .00001313  00000+0  16344-3 0  9993
2 33320  97.6675 152.1258 0019806 140.7318 219.5338 14.83984220958111
HUANJING 1B (HJ-1B)     
1 33321U 08041B   26166.17909704  .00000481  00000+0  64414-4 0  9998
2 33321  97.6510 155.2724 0035825 187.6563 172.4109 14.83312320958112
GEOEYE 1                
1 33331U 08042A   26166.17083311  .00000408  00000+0  85456-4 0  9995
2 33331  98.1236 240.1276 0005462  74.4999 285.6807 14.64724038949855
THEOS                   
1 33396U 08049A   26166.13700971  .00000203  00000+0  11505-3 0  9993
2 33396  98.5577 223.4870 0001208  80.9536 279.1778 14.20133452917671
COSMO-SKYMED 3          
1 33412U 08054A   26166.15113453  .00004583  00000+0  31027-3 0  9999
2 33412  97.8283  24.6886 0014344 274.5443  85.4145 15.06943518956639
YAOGAN-4                
1 33446U 08061A   26166.07574544  .00000874  00000+0  11349-3 0  9991
2 33446  97.9308  99.6016 0015747  78.6697 281.6285 14.83196490945359
GOSAT (IBUKI)           
1 33492U 09002A   26165.54743529  .00001007  00000+0  18613-3 0  9990
2 33492  98.0891 276.6617 0001517  86.4252 273.7126 14.67540145931079
DEIMOS-1                
1 35681U 09041A   26166.21938722  .00000677  00000+0  10714-3 0  9997
2 35681  97.7393 323.5320 0001479 133.0038 227.1295 14.75236679906597
DUBAISAT-1              
1 35682U 09041B   26166.12194012  .00000626  00000+0  10028-3 0  9996
2 35682  98.0049 299.4024 0011698  79.6338 280.6189 14.75119894904799
