OBJECT_NAME,OBJECT_ID,EPOCH,MEAN_MOTION,ECCENTRICITY,INCLINATION,RA_OF_ASC_NODE,ARG_OF_PERICENTER,MEAN_ANOMALY,EPHEMERIS_TYPE,CLASSIFICATION_TYPE,NORAD_CAT_ID,ELEMENT_SET_NO,REV_AT_EPOCH,BSTAR,MEAN_MOTION_DOT,MEAN_MOTION_DDOT
SCD 1,1993-009B,2026-06-14T15:00:29.051136,14.46118084,.0042141,24.9680,223.3964,110.7073,23.6278,0,U,22490,999,76074,.49930256E-4,.369E-5,0
TECHSAT 1B (GO-32),1998-043D,2026-06-14T22:58:13.413216,14.24428011,.0000936,99.0066,158.6595,168.0137,192.1063,0,U,25397,999,45101,.36595E-4,.38E-6,0
SCD 2,1998-060A,2026-06-15T02:05:28.417344,14.45525172,.0016977,24.9950,85.1081,101.0153,281.8843,0,U,25504,999,46002,.51703E-4,.367E-5,0
DLR-TUBSAT,1999-029B,2026-06-15T05:26:28.986432,14.52426415,.0014175,98.6696,161.6663,1.2101,358.9126,0,U,25757,999,43296,.26896E-4,.61E-6,0
TERRA,1999-068A,2026-06-15T04:04:36.564096,14.61101583,.0001427,97.9457,215.7960,197.0393,231.2884,0,U,25994,999,40931,.75084E-4,.325E-5,0
MAROC-TUBSAT,2001-056D,2026-06-15T02:44:14.383968,13.70262412,.0020265,99.8080,342.9345,146.4549,326.2466,0,U,27004,999,22590,.20211E-4,-.29E-6,0
AQUA,2002-022A,2026-06-15T04:43:30.165024,14.62155456,.0001179,98.4276,135.4399,53.3370,317.2643,0,U,27424,999,28298,.14146E-3,.662E-5,0
SHIYAN-1 (SY-1),2004-012A,2026-06-15T03:52:00.404256,15.33717916,.0005787,97.8695,244.0974,40.0278,320.1389,0,U,28220,999,21078,.36816E-3,.11928E-3,0
AURA,2004-026A,2026-06-15T03:17:49.111008,14.61326243,.0001233,98.3417,122.5737,74.2274,285.9062,0,U,28376,999,16591,.14043E-3,.645E-5,0
IRS-P5 (CARTOSAT-1),2005-017A,2026-06-15T01:33:39.369600,14.91044476,.0002643,97.5308,189.2257,82.4469,277.7050,0,U,28649,999,14350,.13348E-3,.1269E-4,0
SINAH 1,2005-043D,2026-06-15T03:22:33.003264,14.64156402,.0013155,98.2857,300.4506,283.8587,76.1152,0,U,28893,999,10022,.59437E-4,.263E-5,0
RESURS-DK 1,2006-021A,2026-06-14T22:04:52.586112,15.13210348,.0006841,69.9340,345.4214,293.4121,66.6326,0,U,29228,999,10223,.139E-3,.2367E-4,0
ARIRANG-2 (KOMPSAT-2),2006-031A,2026-06-15T06:03:40.257792,14.64659358,.0015928,97.8301,350.7928,80.0398,29.5018,0,U,29268,999,6119,.74823E-4,.354E-5,0
LAPAN-TUBSAT,2007-001A,2026-06-15T05:37:15.427776,14.85951464,.0011699,98.1335,165.4138,185.5027,174.6061,0,U,29709,999,5086,.12335E-3,.102E-4,0
HAIYANG-1B,2007-010A,2026-06-15T04:29:20.327712,14.31026416,.0012894,98.3494,148.1098,202.4597,157.6023,0,U,31113,999,35,.41371E-4,.67E-6,0
COSMO-SKYMED 1,2007-023A,2026-06-15T04:43:17.079744,14.97090189,.0001155,97.8839,358.0359,98.4294,261.7059,0,U,31598,999,2949,.19148E-3,.2148E-4,0
TERRASAR-X,2007-026A,2026-06-14T13:22:04.240992,15.19148207,.00018,97.4461,173.3010,95.8158,264.3281,0,U,31698,999,5282,.21289E-4,.38E-5,0
WORLDVIEW-1 (WV-1),2007-041A,2026-06-15T04:35:31.748352,15.24247430,.0002434,97.3878,285.9633,27.0836,333.0528,0,U,32060,999,4257,.20109E-3,.4836E-4,0
YAOGAN-3,2007-055A,2026-06-15T04:20:26.386080,14.90778937,.0002047,97.8155,196.0787,86.4341,273.7111,0,U,32289,999,557,.30242E-3,.2918E-4,0
COSMO-SKYMED 2,2007-059A,2026-06-15T04:52:39.972288,14.82153579,.0001379,97.8886,349.8300,86.5274,273.6096,0,U,32376,999,171,.49602E-4,.343E-5,0
RADARSAT-2,2007-061A,2026-06-15T03:33:58.908672,14.29981201,.0001305,98.5772,173.1099,83.6407,276.4923,0,U,32382,999,96566,.27241E-4,.27E-6,0
CARTOSAT-2A,2008-021A,2026-06-15T03:39:35.989632,14.79235715,.0013092,97.7638,214.9303,114.8372,245.4203,0,U,32783,999,97850,.90118E-4,.62E-5,0
HUANJING 1A (HJ-1A),2008-041A,2026-06-15T05:03:43.416288,14.83984220,.0019806,97.6675,152.1258,140.7318,219.5338,0,U,33320,999,95811,.16344E-3,.1313E-4,0
HUANJING 1B (HJ-1B),2008-041B,2026-06-15T04:17:53.984256,14.83312320,.0035825,97.6510,155.2724,187.6563,172.4109,0,U,33321,999,95811,.64414E-4,.481E-5,0
GEOEYE 1,2008-042A,2026-06-15T04:05:59.980704,14.64724038,.0005462,98.1236,240.1276,74.4999,285.6807,0,U,33331,999,94985,.85456E-4,.408E-5,0
THEOS,2008-049A,2026-06-15T03:17:17.638944,14.20133452,.0001208,98.5577,223.4870,80.9536,279.1778,0,U,33396,999,91767,.11505E-3,.203E-5,0
COSMO-SKYMED 3,2008-054A,2026-06-15T03:37:38.023392,15.06943518,.0014344,97.8283,24.6886,274.5443,85.4145,0,U,33412,999,95663,.31027E-3,.4583E-4,0
YAOGAN-4,2008-061A,2026-06-15T01:49:04.406016,14.83196490,.0015747,97.9308,99.6016,78.6697,281.6285,0,U,33446,999,94535,.11349E-3,.874E-5,0
GOSAT (IBUKI),2009-002A,2026-06-14T13:08:18.409056,14.67540145,.0001517,98.0891,276.6617,86.4252,273.7126,0,U,33492,999,93107,.18612578E-3,.1007E-4,0
DEIMOS-1,2009-041A,2026-06-15T05:15:55.055808,14.75236679,.0001479,97.7393,323.5320,133.0038,227.1295,0,U,35681,999,90659,.10714E-3,.677E-5,0
DUBAISAT-1,2009-041B,2026-06-15T02:55:35.626368,14.75119894,.0011698,98.0049,299.4024,79.6338,280.6189,0,U,35682,999,90479,.10028E-3,.626E-5,0
